HST                     
1 20580U 90037B   26195.52261566  .00003452  00000+0  10435-3 0  9999
2 20580  28.4724 253.7048 0002196  97.3468 262.7378 15.31056678792766
POLAR                   
1 23802U 96013A   26195.76553022  .00000202  00000+0  00000+0 0  9999
2 23802  79.8911 226.7248 6498087 208.1291  91.6735  1.29846068145216
SWAS                    
1 25560U 98071A   26196.17519875  .00001551  00000+0  10239-3 0  9999
2 25560  69.8941 155.3353 0007963 230.5846 129.4613 15.09746784501491
CXO                     
1 25867U 99040B   26198.46886808  .00000598  00000+0  00000+0 0  9994
2 25867  56.6226 115.7943 7787022 310.0504   0.5333  0.37805709 17431
XMM-NEWTON              
1 25989U 99066A   26197.27126138  .00000020  00000+0  00000+0 0  9998
2 25989  64.3306 282.6120 4665766  64.4091   0.1022  0.50127411 23148
TERRA                   
1 25994U 99068A   26196.16632031  .00000190  00000+0  47727-4 0  9997
2 25994  97.9442 244.6011 0003410 122.7837 312.7683 14.61123699413697
CLUSTER II-FM7 (SAMBA)  
1 26410U 00041A   26192.68021872  .00012833  00000+0  00000+0 0  9997
2 26410 149.8437  55.3938 9082311 272.8334 359.6328  0.44896530 20420
CLUSTER II-FM8 (TANGO)  
1 26464U 00045B   26195.45080911  .00019808  00000+0  00000+0 0  9996
2 26464 150.0346  57.1658 9090382 274.4944   1.9905  0.44416740 20433
ODIN                    
1 26702U 01007A   26196.11738258  .00268050  28117-4  92766-3 0  9991
2 26702  97.3728 239.0985 0005003 152.5421 207.6117 15.89461170393819
TIMED                   
1 26998U 01055B   26196.17466051  .00000530  00000+0  51625-4 0  9999
2 26998  74.0666 178.6633 0002243 300.5314  59.5649 14.95344474335000
CORIOLIS                
1 27640U 03001A   26196.03081302  .00000040  00000+0  39232-4 0  9990
2 27640  98.7135 202.4910 0014913 129.6632 230.5862 14.19951793218173
SORCE                   
1 27651U 03004A   26196.09845253  .00001382  00000+0  10927-3 0  9993
2 27651  39.9910 102.4143 0018710 253.8759 105.9975 15.03841818276106
MOST                    
1 27843U 03031D   26196.01796450  .00000016  00000+0  27287-4 0  9993
2 27843  98.7053 203.3560 0010084 165.5688 194.5779 14.21327696194668
SCISAT 1                
1 27858U 03036A   26196.18261345  .00000272  00000+0  39335-4 0  9993
2 27858  73.9301 115.7199 0007372 183.8950 176.2171 14.81478945235591
SWIFT                   
1 28485U 04047A   26195.51335693  .00043330  00000+0  31959-3 0  9992
2 28485  20.5530 333.6864 0002053  17.5678 342.4839 15.71113940191164
HINODE (SOLAR-B)        
1 29479U 06041A   26196.05098639  .00000293  00000+0  58791-4 0  9993
2 29479  98.0548 211.7927 0017014 194.9313 165.1392 14.68658145 58962
SHIJIAN-6 02A (SJ-6 02A)
1 29505U 06046A   26196.18926006  .00002532  00000+0  13074-3 0  9992
2 29505  97.6345 237.4689 0004222  62.5698 297.5964 15.17245240 76514
SHIJIAN-6 02B (SJ-6 02B)
1 29506U 06046B   26196.20416130  .00000453  00000+0  39794-4 0  9996
2 29506  97.7145 225.0891 0013400 336.2618  23.7986 15.01437652 74944
FGRST (GLAST)           
1 33053U 08029A   26194.87715061  .00002161  00000+0  73017-4 0  9991
2 33053  25.5829  19.1417 0007749 283.0885  76.8788 15.24072309999915
SDO                     
1 36395U 10005A   26196.22464919 -.00000103  00000+0  00000+0 0  9996
2 36395  34.7083  85.9158 0001967  51.0804 134.7094  1.00277105 60344
CRYOSAT 2               
1 36508U 10013A   26196.20094413  .00000131  00000+0  31828-4 0  9994
2 36508  92.0359 284.1120 0002390  98.6039 261.5439 14.51898423862145
X-SAT                   
1 37389U 11015C   26196.16718766 -.00000045  00000+0 -16396-5 0  9994
2 37389  98.3521 171.8604 0012716 261.0018  98.9723 14.25213694791666
GCOM-W1 (SHIZUKU)       
1 38337U 12025A   26195.84408251  .00000203  00000+0  55083-4 0  9998
2 38337  98.2023 135.9816 0001320  77.8838 345.1222 14.57090026753064
NUSTAR                  
1 38358U 12031A   26196.25002315  .00004004  00000+0  19280-3 0  9996
2 38358   6.0244 183.5867 0007987 173.2868 133.8136 15.09040956  1307
NEOSSAT                 
1 39089U 13009D   26196.08404650  .00000051  00000+0  32509-4 0  9991
2 39089  98.4189  15.4550 0011446 157.5842 202.5847 14.35835631700743
BRITE-AUSTRIA           
1 39091U 13009F   26195.99913027  .00000078  00000+0  41194-4 0  9995
2 39091  98.4008  14.7483 0010751 151.2074 208.9708 14.36552492701041
IRIS                    
1 39197U 13033A   26196.11094447  .00000492  00000+0  62572-4 0  9993
2 39197  97.9319  35.3000 0023318 225.3061 134.6255 14.85936729704524
HISAKI (SPRINT-A)       
1 39253U 13049A   26196.11492383  .00000088  00000+0  28060-4 0  9999
2 39253  29.7212  78.0202 0136983 243.2375 115.4122 13.55546759635215
CASSIOPE                
1 39265U 13055A   26196.15230987  .00019042 -54223-6  20397-3 0  9991
2 39265  80.9127  32.6925 0282846 328.0263  30.4067 15.27418631671939
STSAT-3                 
1 39422U 13066G   26196.14415520  .00001585  00000+0  12257-3 0  9990
2 39422  97.6187 165.5813 0008923 305.7503  54.2892 15.02885761688403
SWARM B                 
1 39451U 13067A   26196.15215560  .00001983  00000+0  69761-4 0  9991
2 39451  87.7459 333.8214 0002302  82.5170 277.6341 15.28716791687512
